[{"OBJECT_NAME":"HAWK-2C","OBJECT_ID":"2021-006CT","EPOCH":"2026-03-09T16:13:22.454976","MEAN_MOTION":15.33286436,"ECCENTRICITY":0.0006943,"INCLINATION":97.2417,"RA_OF_ASC_NODE":114.9961,"ARG_OF_PERICENTER":184.0877,"MEAN_ANOMALY":176.031,"EPHEMERIS_TYPE":0,"CLASSIFICATION_TYPE":"U","NORAD_CAT_ID":47502,"ELEMENT_SET_NO":999,"REV_AT_EPOCH":28424,"BSTAR":0.00025492914,"MEAN_MOTION_DOT":8.129e-5,"MEAN_MOTION_DDOT":0},{"OBJECT_NAME":"STARLINK-34869","OBJECT_ID":"2025-190W","EPOCH":"2026-03-09T13:07:17.040000","MEAN_MOTION":15.30200898,"ECCENTRICITY":0.00021177,"INCLINATION":53.1595,"RA_OF_ASC_NODE":168.8163,"ARG_OF_PERICENTER":22.85,"MEAN_ANOMALY":337.2595,"EPHEMERIS_TYPE":0,"CLASSIFICATION_TYPE":"U","NORAD_CAT_ID":65371,"ELEMENT_SET_NO":999,"REV_AT_EPOCH":2973,"BSTAR":0.0011966654,"MEAN_MOTION_DOT":0.00035253,"MEAN_MOTION_DDOT":0}]
